NORAD_CAT_ID,OBJECT_NAME,OBJECT_TYPE,EPOCH,MEAN_MOTION,ECCENTRICITY,INCLINATION,RA_OF_ASC_NODE,ARG_OF_PERICENTER,MEAN_ANOMALY,BSTAR,MEAN_MOTION_DOT,MEAN_MOTION_DDOT,TLE_LINE0,TLE_LINE1,TLE_LINE2,SEMIMAJOR_AXIS,PERIOD,APOGEE,PERIGEE,DECAYED
55940.0,STARLINK-5864,PAYLOAD,2023-04-04 14:00:01,15.69914548,0.0003712,69.9952,130.9782,272.6869,197.9286,0.00011536,0.00013676,0.0,0 STARLINK-5864,1 55940U 23037AC  23094.58334491  .00013676  00000-0  11536-3 0  9995,2 55940  69.9952 130.9782 0003712 272.6869 197.9286 15.69914548  3320,6737.278,91.725,361.644,356.643,0.0
55940.0,STARLINK-5864,PAYLOAD,2023-04-04 22:00:00,15.69891999,0.0003735,69.9959,130.0405,267.4698,286.4802,0.00060714,0.00073339,0.0,0 STARLINK-5864,1 55940U 23037AC  23094.91667824  .00073339  00000-0  60714-3 0  9995,2 55940  69.9959 130.0405 0003735 267.4698 286.4802 15.69891999  1305,6737.343,91.726,361.724,356.692,0.0
55940.0,STARLINK-5864,PAYLOAD,2023-04-05 14:00:01,15.69928781,0.0003546,69.9969,128.1658,276.3224,84.2941,-5.2275e-06,-8.42e-06,0.0,0 STARLINK-5864,1 55940U 23037AC  23095.58334491 -.00000842  00000-0 -52275-5 0  9996,2 55940  69.9969 128.1658 0003546 276.3224  84.2941 15.69928781  1317,6737.238,91.724,361.492,356.714,0.0
55940.0,STARLINK-5864,PAYLOAD,2023-04-05 16:00:00,15.69966604,0.0003473,69.9973,127.9314,274.8921,196.5494,-0.00074371,-0.00088857,0.0,0 STARLINK-5864,1 55940U 23037AC  23095.66667824 -.00088857  00000-0 -74371-3 0  9995,2 55940  69.9973 127.9314 0003473 274.8921 196.5494 15.69966604  3491,6737.13,91.722,361.334,356.655,0.0
55940.0,STARLINK-5864,PAYLOAD,2023-04-05 22:00:00,15.69855164,0.0003542,69.9971,127.2285,267.7499,176.2281,0.0010263,0.00124688,0.0,0 STARLINK-5864,1 55940U 23037AC  23095.91667824  .00124688  00000-0  10263-2 0  9993,2 55940  69.9971 127.2285 0003542 267.7499 176.2281 15.69855164  1302,6737.448,91.728,361.7,356.927,0.0
55940.0,STARLINK-5864,PAYLOAD,2023-04-06 10:00:00,15.69885254,0.0003595,69.9985,125.8225,275.0329,113.9342,0.00060957,0.00073613,0.0,0 STARLINK-5864,1 55940U 23037AC  23096.41667824  .00073613  00000-0  60957-3 0  9996,2 55940  69.9985 125.8225 0003595 275.0329 113.9342 15.69885254  3612,6737.362,91.726,361.649,356.805,0.0
55940.0,STARLINK-5864,PAYLOAD,2023-04-06 14:00:01,15.69947637,0.000363,69.9986,125.3537,274.7003,335.9822,-0.00025072,-0.00030283,0.0,0 STARLINK-5864,1 55940U 23037AC  23096.58335648 -.00030283  00000-0 -25072-3 0  9997,2 55940  69.9986 125.3537 0003630 274.7003 335.9822 15.69947637  1306,6737.184,91.723,361.494,356.603,0.0
55940.0,STARLINK-5864,PAYLOAD,2023-04-06 22:00:00,15.69890985,0.0003534,69.9991,124.4166,268.2716,65.7178,0.00040719,0.00048969,0.0,0 STARLINK-5864,1 55940U 23037AC  23096.91667824  .00048969  00000-0  40719-3 0  9991,2 55940  69.9991 124.4166 0003534 268.2716  65.7178 15.69890985  1307,6737.346,91.726,361.592,356.83,0.0
55940.0,STARLINK-5864,PAYLOAD,2023-04-07 14:00:01,15.69979604,0.000345,69.9996,122.5422,274.1137,226.4959,-0.00067035,-0.00080237,0.0,0 STARLINK-5864,1 55940U 23037AC  23097.58334491 -.00080237  00000-0 -67035-3 0  9992,2 55940  69.9996 122.5422 0003450 274.1137 226.4959 15.69979604  3790,6737.092,91.721,361.282,356.633,0.0
55940.0,STARLINK-5864,PAYLOAD,2023-04-08 04:41:43,15.69914314,0.0004689,69.998,120.8218,285.711,74.3568,2.5561e-05,2.861e-05,0.0,0 STARLINK-5864,1 55940U 23037AC  23098.19564111  .00002861  00000-0  25561-4 0  9998,2 55940  69.9980 120.8218 0004689 285.7110  74.3568 15.69914314  3895,6737.279,91.725,362.303,355.985,0.0
55940.0,STARLINK-5864,PAYLOAD,2023-04-08 10:48:43,15.69924843,0.0003521,69.9981,120.1051,272.576,87.5033,5.7203e-05,6.671e-05,0.0,0 STARLINK-5864,1 55940U 23037AC  23098.45050566  .00006671  00000-0  57203-4 0  9992,2 55940  69.9981 120.1051 0003521 272.5760  87.5033 15.69924843  3939,6737.249,91.724,361.486,356.742,0.0
55940.0,STARLINK-5864,PAYLOAD,2023-04-08 18:27:28,15.69951026,0.0003644,69.999,119.2083,264.6348,95.4432,0.00019684,0.00023549,0.0,0 STARLINK-5864,1 55940U 23037AC  23098.76908338  .00023549  00000-0  19684-3 0  9998,2 55940  69.9990 119.2083 0003644 264.6348  95.4432 15.69951026  3982,6737.174,91.723,361.494,356.584,0.0
55940.0,STARLINK-5864,PAYLOAD,2023-04-09 03:37:59,15.69937538,0.0003831,69.9991,118.1331,262.1335,97.9426,0.00013858,0.00016494,0.0,0 STARLINK-5864,1 55940U 23037AC  23099.15138521  .00016494  00000-0  13858-3 0  9999,2 55940  69.9991 118.1331 0003831 262.1335  97.9426 15.69937538  4044,6737.213,91.723,361.659,356.497,0.0
55940.0,STARLINK-5864,PAYLOAD,2023-04-09 11:16:45,15.69932062,0.0003802,70.0011,117.2382,260.3706,99.706,0.00014161,0.00016856,0.0,0 STARLINK-5864,1 55940U 23037AC  23099.46996931  .00016856  00000-0  14161-3 0  9990,2 55940  70.0011 117.2382 0003802 260.3706  99.7060 15.69932062  4092,6737.228,91.724,361.655,356.532,0.0
55940.0,STARLINK-5864,PAYLOAD,2023-04-09 12:48:30,15.69931015,0.0003697,70.0009,117.0587,260.2634,99.8144,0.00014811,0.0001764,0.0,0 STARLINK-5864,1 55940U 23037AC  23099.53368650  .00017640  00000-0  14811-3 0  9993,2 55940  70.0009 117.0587 0003697 260.2634  99.8144 15.69931015  3769,6737.231,91.724,361.587,356.606,0.0
55940.0,STARLINK-5864,PAYLOAD,2023-04-10 04:06:01,15.69924671,0.0003398,70.0014,115.2687,257.9964,102.0851,4.1329e-05,4.76e-05,0.0,0 STARLINK-5864,1 55940U 23037AC  23100.17085590  .00004760  00000-0  41329-4 0  9999,2 55940  70.0014 115.2687 0003398 257.9964 102.0851 15.69924671  4205,6737.25,91.724,361.404,356.825,0.0
55940.0,STARLINK-5864,PAYLOAD,2023-04-10 13:16:32,15.69930487,0.0003396,70.0005,114.1933,259.0539,101.0274,4.7864e-05,5.548e-05,0.0,0 STARLINK-5864,1 55940U 23037AC  23100.55315484  .00005548  00000-0  47864-4 0  9994,2 55940  70.0005 114.1933 0003396 259.0539 101.0274 15.69930487  3924,6737.233,91.724,361.386,356.81,0.0
55940.0,STARLINK-5864,PAYLOAD,2023-04-10 17:51:47,15.69951995,0.0004361,69.9994,113.6581,257.9694,102.1013,8.5663e-05,0.00010113,0.0,0 STARLINK-5864,1 55940U 23037AC  23100.74429497  .00010113  00000-0  85663-4 0  9998,2 55940  69.9994 113.6581 0004361 257.9694 102.1013 15.69951995  3956,6737.171,91.723,361.974,356.098,0.0
55940.0,STARLINK-5864,PAYLOAD,2023-04-11 12:12:49,15.6991892,0.0002793,70.0017,111.5068,268.5096,91.5779,-2.2019e-06,-4.77e-06,0.0,0 STARLINK-5864,1 55940U 23037AC  23101.50891027 -.00000477  00000-0 -22019-5 0  9996,2 55940  70.0017 111.5068 0002793 268.5096  91.5779 15.69918920  4078,6737.266,91.724,361.013,357.249,0.0
55940.0,STARLINK-5864,PAYLOAD,2023-04-11 18:19:50,15.69926798,0.000272,70.0024,110.7915,274.6733,85.4152,2.1527e-05,2.377e-05,0.0,0 STARLINK-5864,1 55940U 23037AC  23101.76377513  .00002377  00000-0  21527-4 0  9994,2 55940  70.0024 110.7915 0002720 274.6733  85.4152 15.69926798  4118,6737.243,91.724,360.941,357.276,0.0
55940.0,STARLINK-5864,PAYLOAD,2023-04-12 03:30:20,15.6992765,0.0003302,70.0006,109.7155,267.4614,92.6204,2.8171e-05,3.176e-05,0.0,0 STARLINK-5864,1 55940U 23037AC  23102.14607376  .00003176  00000-0  28171-4 0  9990,2 55940  70.0006 109.7155 0003302 267.4614  92.6204 15.69927650  4517,6737.241,91.724,361.331,356.881,0.0
55940.0,STARLINK-5864,PAYLOAD,2023-04-12 09:37:21,15.69926026,0.0003182,70.001,108.9984,267.5037,92.5794,1.8132e-05,1.968e-05,0.0,0 STARLINK-5864,1 55940U 23037AC  23102.40094039  .00001968  00000-0  18132-4 0  9998,2 55940  70.0010 108.9984 0003182 267.5037  92.5794 15.69926026  4215,6737.246,91.724,361.254,356.967,0.0
55940.0,STARLINK-5864,PAYLOAD,2023-04-12 17:16:07,15.69921142,0.0003007,70.0008,108.1031,271.839,88.2462,-5.3465e-07,-2.77e-06,0.0,0 STARLINK-5864,1 55940U 23037AC  23102.71952692 -.00000277  00000-0 -53465-6 0  9994,2 55940  70.0008 108.1031 0003007 271.8390  88.2462 15.69921142  4604,6737.26,91.724,361.151,357.099,0.0
55940.0,STARLINK-5864,PAYLOAD,2023-04-13 10:05:23,15.699219,0.0003199,70.0024,106.1345,274.5006,85.5824,1.8846e-05,2.054e-05,0.0,0 STARLINK-5864,1 55940U 23037AC  23103.42041106  .00002054  00000-0  18846-4 0  9997,2 55940  70.0024 106.1345 0003199 274.5006  85.5824 15.69921900  4372,6737.257,91.724,361.278,356.967,0.0
55940.0,STARLINK-5864,PAYLOAD,2023-04-14 10:33:25,15.69930148,0.0003283,70.0007,103.2671,271.3993,88.6826,2.533e-05,2.835e-05,0.0,0 STARLINK-5864,1 55940U 23037AC  23104.43987552  .00002835  00000-0  25330-4 0  9996,2 55940  70.0007 103.2671 0003283 271.3993  88.6826 15.69930148  4535,6737.234,91.724,361.311,356.887,0.0
55940.0,STARLINK-5864,PAYLOAD,2023-04-15 06:26:11,15.69926456,0.0003083,70.0006,100.9368,271.4634,88.6209,2.3203e-05,2.578e-05,0.0,0 STARLINK-5864,1 55940U 23037AC  23105.26819319  .00002578  00000-0  23203-4 0  9994,2 55940  70.0006 100.9368 0003083 271.4634  88.6209 15.69926456  5007,6737.244,91.724,361.186,357.032,0.0
55940.0,STARLINK-5864,PAYLOAD,2023-04-15 09:29:42,15.69923034,0.0003208,70.0008,100.5806,268.4546,91.6283,1.2137e-05,1.247e-05,0.0,0 STARLINK-5864,1 55940U 23037AC  23105.39563121  .00001247  00000-0  12137-4 0  9991,2 55940  70.0008 100.5806 0003208 268.4546  91.6283 15.69923034  4687,6737.254,91.724,361.281,356.958,0.0
55940.0,STARLINK-5864,PAYLOAD,2023-04-15 17:08:27,15.69930774,0.000328,70.0015,99.6848,275.4609,84.6213,1.1708e-05,1.196e-05,0.0,0 STARLINK-5864,1 55940U 23037AC  23105.71421052  .00001196  00000-0  11708-4 0  9999,2 55940  70.0015  99.6848 0003280 275.4609  84.6213 15.69930774  4737,6737.232,91.724,361.307,356.887,0.0
55940.0,STARLINK-5864,PAYLOAD,2023-04-16 08:25:58,15.69931537,0.0003267,70.0006,97.892,266.422,93.6602,2.0749e-05,2.284e-05,0.0,0 STARLINK-5864,1 55940U 23037AC  23106.35137677  .00002284  00000-0  20749-4 0  9991,2 55940  70.0006  97.8920 0003267 266.4220  93.6602 15.69931537  5171,6737.23,91.724,361.296,356.894,0.0
55940.0,STARLINK-5864,PAYLOAD,2023-04-17 08:54:17,15.69501925,0.000533,70.002,95.0285,292.0312,68.0317,-0.00083505,-0.00097799,0.0,0 STARLINK-5864,1 55940U 23037AC  23107.37103581 -.00097799  00000-0 -83505-3 0  9996,2 55940  70.0020  95.0285 0005330 292.0312  68.0317 15.69501925  5332,6738.459,91.749,363.916,356.733,0.0
